STARLINK-30494          
1 57970U 23151G   26068.36049035 -.00001272  00000+0 -35691-4 0  9993
2 57970  43.0027 192.4566 0001155 241.5536 118.5200 15.28417441137406
STARLINK-31730          
1 59555U 24074X   26068.12455268 -.00002474  00000+0 -80472-4 0  9994
2 59555  43.0030 347.0799 0001145 251.2892 108.7835 15.27556672105925
